[
  {
    "OBJECT_NAME": "STARLINK-1185",
    "OBJECT_ID": "20006AV",
    "EPOCH": "2025-11-10T14:01:48.930240",
    "MEAN_MOTION": 15.06414074,
    "ECCENTRICITY": 0.0001305,
    "INCLINATION": 53.0563,
    "RA_OF_ASC_NODE": 61.2996,
    "ARG_OF_PERICENTER": 73.36,
    "MEAN_ANOMALY": 286.7533,
    "EPHEMERIS_TYPE": 0,
    "CLASSIFICATION_TYPE": "U",
    "NORAD_CAT_ID": 45087,
    "ELEMENT_SET_NO": 999,
    "REV_AT_EPOCH": 31907,
    "BSTAR": 0.00018907,
    "MEAN_MOTION_DOT": 2.537e-05,
    "MEAN_MOTION_DDOT": 0.0,
    "TLE_LINE1": "1 45087U 20006AV  25314.58459410  .00002537  00000+0  18907-3 0  9997",
    "TLE_LINE2": "2 45087  53.0563  61.2996 0001305  73.3600 286.7533 15.06414074319075",
    "COMMENT": "Grouped by shell and plane from TLE"
  },
  {
    "OBJECT_NAME": "STARLINK-1781",
    "OBJECT_ID": "20073R",
    "EPOCH": "2025-11-11T06:54:20.598624",
    "MEAN_MOTION": 15.0639557,
    "ECCENTRICITY": 0.0001632,
    "INCLINATION": 53.0572,
    "RA_OF_ASC_NODE": 68.4148,
    "ARG_OF_PERICENTER": 87.4206,
    "MEAN_ANOMALY": 272.697,
    "EPHEMERIS_TYPE": 0,
    "CLASSIFICATION_TYPE": "U",
    "NORAD_CAT_ID": 46685,
    "ELEMENT_SET_NO": 999,
    "REV_AT_EPOCH": 27906,
    "BSTAR": 0.00010816000000000001,
    "MEAN_MOTION_DOT": 1.33e-05,
    "MEAN_MOTION_DDOT": 0.0,
    "TLE_LINE1": "1 46685U 20073R   25315.28773841  .00001330  00000+0  10816-3 0  9992",
    "TLE_LINE2": "2 46685  53.0572  68.4148 0001632  87.4206 272.6970 15.06395570279061",
    "COMMENT": "Grouped by shell and plane from TLE"
  },
  {
    "OBJECT_NAME": "STARLINK-1805",
    "OBJECT_ID": "20073AM",
    "EPOCH": "2025-11-11T07:15:31.197024",
    "MEAN_MOTION": 15.06402528,
    "ECCENTRICITY": 0.0001645,
    "INCLINATION": 53.0517,
    "RA_OF_ASC_NODE": 68.0767,
    "ARG_OF_PERICENTER": 94.7822,
    "MEAN_ANOMALY": 265.3355,
    "EPHEMERIS_TYPE": 0,
    "CLASSIFICATION_TYPE": "U",
    "NORAD_CAT_ID": 46705,
    "ELEMENT_SET_NO": 999,
    "REV_AT_EPOCH": 27907,
    "BSTAR": 3.4422000000000003e-05,
    "MEAN_MOTION_DOT": 2.31e-06,
    "MEAN_MOTION_DDOT": 0.0,
    "TLE_LINE1": "1 46705U 20073AM  25315.30244441  .00000231  00000+0  34422-4 0  9996",
    "TLE_LINE2": "2 46705  53.0517  68.0767 0001645  94.7822 265.3355 15.06402528279074",
    "COMMENT": "Grouped by shell and plane from TLE"
  },
  {
    "OBJECT_NAME": "STARLINK-1810",
    "OBJECT_ID": "20073AR",
    "EPOCH": "2025-11-11T07:15:34.230528",
    "MEAN_MOTION": 15.09520621,
    "ECCENTRICITY": 0.0001392,
    "INCLINATION": 53.0554,
    "RA_OF_ASC_NODE": 67.7807,
    "ARG_OF_PERICENTER": 45.7425,
    "MEAN_ANOMALY": 314.368,
    "EPHEMERIS_TYPE": 0,
    "CLASSIFICATION_TYPE": "U",
    "NORAD_CAT_ID": 46709,
    "ELEMENT_SET_NO": 999,
    "REV_AT_EPOCH": 27907,
    "BSTAR": 0.0022413,
    "MEAN_MOTION_DOT": 0.00036242,
    "MEAN_MOTION_DDOT": 0.0,
    "TLE_LINE1": "1 46709U 20073AR  25315.30247952  .00036242  00000+0  22413-2 0  9996",
    "TLE_LINE2": "2 46709  53.0554  67.7807 0001392  45.7425 314.3680 15.09520621279078",
    "COMMENT": "Grouped by shell and plane from TLE"
  },
  {
    "OBJECT_NAME": "STARLINK-1828",
    "OBJECT_ID": "20073BH",
    "EPOCH": "2025-11-11T00:21:30.626784",
    "MEAN_MOTION": 15.06408402,
    "ECCENTRICITY": 0.0001484,
    "INCLINATION": 53.0549,
    "RA_OF_ASC_NODE": 69.3676,
    "ARG_OF_PERICENTER": 88.8851,
    "MEAN_ANOMALY": 271.2308,
    "EPHEMERIS_TYPE": 0,
    "CLASSIFICATION_TYPE": "U",
    "NORAD_CAT_ID": 46725,
    "ELEMENT_SET_NO": 999,
    "REV_AT_EPOCH": 27903,
    "BSTAR": 0.00021091,
    "MEAN_MOTION_DOT": 2.862e-05,
    "MEAN_MOTION_DDOT": 0.0,
    "TLE_LINE1": "1 46725U 20073BH  25315.01493781  .00002862  00000+0  21091-3 0  9998",
    "TLE_LINE2": "2 46725  53.0549  69.3676 0001484  88.8851 271.2308 15.06408402279038",
    "COMMENT": "Grouped by shell and plane from TLE"
  },
  {
    "OBJECT_NAME": "STARLINK-2257",
    "OBJECT_ID": "21018A",
    "EPOCH": "2025-11-11T06:31:03.711936",
    "MEAN_MOTION": 15.0640045,
    "ECCENTRICITY": 0.0001335,
    "INCLINATION": 53.0546,
    "RA_OF_ASC_NODE": 63.2176,
    "ARG_OF_PERICENTER": 88.7397,
    "MEAN_ANOMALY": 271.3745,
    "EPHEMERIS_TYPE": 0,
    "CLASSIFICATION_TYPE": "U",
    "NORAD_CAT_ID": 47787,
    "ELEMENT_SET_NO": 999,
    "REV_AT_EPOCH": 25874,
    "BSTAR": 0.00014601,
    "MEAN_MOTION_DOT": 1.894e-05,
    "MEAN_MOTION_DDOT": 0.0,
    "TLE_LINE1": "1 47787U 21018A   25315.27157074  .00001894  00000+0  14601-3 0  9990",
    "TLE_LINE2": "2 47787  53.0546  63.2176 0001335  88.7397 271.3745 15.06400450258747",
    "COMMENT": "Grouped by shell and plane from TLE"
  },
  {
    "OBJECT_NAME": "STARLINK-2322",
    "OBJECT_ID": "21018E",
    "EPOCH": "2025-11-11T06:15:09.722016",
    "MEAN_MOTION": 15.06405248,
    "ECCENTRICITY": 0.000111,
    "INCLINATION": 53.0552,
    "RA_OF_ASC_NODE": 63.2665,
    "ARG_OF_PERICENTER": 90.4731,
    "MEAN_ANOMALY": 269.6386,
    "EPHEMERIS_TYPE": 0,
    "CLASSIFICATION_TYPE": "U",
    "NORAD_CAT_ID": 47791,
    "ELEMENT_SET_NO": 999,
    "REV_AT_EPOCH": 25875,
    "BSTAR": 0.00011509,
    "MEAN_MOTION_DOT": 1.434e-05,
    "MEAN_MOTION_DDOT": 0.0,
    "TLE_LINE1": "1 47791U 21018E   25315.26052919  .00001434  00000+0  11509-3 0  9990",
    "TLE_LINE2": "2 47791  53.0552  63.2665 0001110  90.4731 269.6386 15.06405248258757",
    "COMMENT": "Grouped by shell and plane from TLE"
  },
  {
    "OBJECT_NAME": "STARLINK-2395",
    "OBJECT_ID": "21018AD",
    "EPOCH": "2025-11-11T06:09:46.260288",
    "MEAN_MOTION": 15.06456946,
    "ECCENTRICITY": 9.34e-05,
    "INCLINATION": 53.0569,
    "RA_OF_ASC_NODE": 63.2827,
    "ARG_OF_PERICENTER": 71.3705,
    "MEAN_ANOMALY": 288.7386,
    "EPHEMERIS_TYPE": 0,
    "CLASSIFICATION_TYPE": "U",
    "NORAD_CAT_ID": 47814,
    "ELEMENT_SET_NO": 999,
    "REV_AT_EPOCH": 25880,
    "BSTAR": 0.00077034,
    "MEAN_MOTION_DOT": 0.00011229,
    "MEAN_MOTION_DDOT": 0.0,
    "TLE_LINE1": "1 47814U 21018AD  25315.25678542  .00011229  00000+0  77034-3 0  9999",
    "TLE_LINE2": "2 47814  53.0569  63.2827 0000934  71.3705 288.7386 15.06456946258802",
    "COMMENT": "Grouped by shell and plane from TLE"
  },
  {
    "OBJECT_NAME": "STARLINK-2399",
    "OBJECT_ID": "21018AF",
    "EPOCH": "2025-11-11T07:08:13.357248",
    "MEAN_MOTION": 15.06402613,
    "ECCENTRICITY": 0.0001018,
    "INCLINATION": 53.0557,
    "RA_OF_ASC_NODE": 63.1008,
    "ARG_OF_PERICENTER": 85.6518,
    "MEAN_ANOMALY": 274.4587,
    "EPHEMERIS_TYPE": 0,
    "CLASSIFICATION_TYPE": "U",
    "NORAD_CAT_ID": 47816,
    "ELEMENT_SET_NO": 999,
    "REV_AT_EPOCH": 25874,
    "BSTAR": 0.00012157,
    "MEAN_MOTION_DOT": 1.53e-05,
    "MEAN_MOTION_DDOT": 0.0,
    "TLE_LINE1": "1 47816U 21018AF  25315.29737682  .00001530  00000+0  12157-3 0  9995",
    "TLE_LINE2": "2 47816  53.0557  63.1008 0001018  85.6518 274.4587 15.06402613258745",
    "COMMENT": "Grouped by shell and plane from TLE"
  },
  {
    "OBJECT_NAME": "STARLINK-2400",
    "OBJECT_ID": "21018AG",
    "EPOCH": "2025-11-11T07:34:45.272928",
    "MEAN_MOTION": 15.06407294,
    "ECCENTRICITY": 0.00016,
    "INCLINATION": 53.0473,
    "RA_OF_ASC_NODE": 63.0155,
    "ARG_OF_PERICENTER": 90.7054,
    "MEAN_ANOMALY": 269.4118,
    "EPHEMERIS_TYPE": 0,
    "CLASSIFICATION_TYPE": "U",
    "NORAD_CAT_ID": 47817,
    "ELEMENT_SET_NO": 999,
    "REV_AT_EPOCH": 25874,
    "BSTAR": 0.00015476000000000002,
    "MEAN_MOTION_DOT": 2.025e-05,
    "MEAN_MOTION_DDOT": 0.0,
    "TLE_LINE1": "1 47817U 21018AG  25315.31580177  .00002025  00000+0  15476-3 0  9991",
    "TLE_LINE2": "2 47817  53.0473  63.0155 0001600  90.7054 269.4118 15.06407294258748",
    "COMMENT": "Grouped by shell and plane from TLE"
  },
  {
    "OBJECT_NAME": "STARLINK-2401",
    "OBJECT_ID": "21018AH",
    "EPOCH": "2025-11-11T07:42:08.014176",
    "MEAN_MOTION": 15.06397004,
    "ECCENTRICITY": 0.0001599,
    "INCLINATION": 53.0525,
    "RA_OF_ASC_NODE": 68.4611,
    "ARG_OF_PERICENTER": 95.7683,
    "MEAN_ANOMALY": 264.3488,
    "EPHEMERIS_TYPE": 0,
    "CLASSIFICATION_TYPE": "U",
    "NORAD_CAT_ID": 47818,
    "ELEMENT_SET_NO": 999,
    "REV_AT_EPOCH": 25867,
    "BSTAR": 0.00019365,
    "MEAN_MOTION_DOT": 2.604e-05,
    "MEAN_MOTION_DDOT": 0.0,
    "TLE_LINE1": "1 47818U 21018AH  25315.32092609  .00002604  00000+0  19365-3 0  9995",
    "TLE_LINE2": "2 47818  53.0525  68.4611 0001599  95.7683 264.3488 15.06397004258676",
    "COMMENT": "Grouped by shell and plane from TLE"
  },
  {
    "OBJECT_NAME": "STARLINK-2402",
    "OBJECT_ID": "21018AJ",
    "EPOCH": "2025-11-11T07:38:42.961920",
    "MEAN_MOTION": 15.06403057,
    "ECCENTRICITY": 0.0001092,
    "INCLINATION": 53.0569,
    "RA_OF_ASC_NODE": 62.9971,
    "ARG_OF_PERICENTER": 97.8824,
    "MEAN_ANOMALY": 262.2289,
    "EPHEMERIS_TYPE": 0,
    "CLASSIFICATION_TYPE": "U",
    "NORAD_CAT_ID": 47819,
    "ELEMENT_SET_NO": 999,
    "REV_AT_EPOCH": 25881,
    "BSTAR": 0.0,
    "MEAN_MOTION_DOT": -6.25e-06,
    "MEAN_MOTION_DDOT": 0.0,
    "TLE_LINE1": "1 47819U 21018AJ  25315.31855280 -.00000625  00000+0 -23057-4 0  9994",
    "TLE_LINE2": "2 47819  53.0569  62.9971 0001092  97.8824 262.2289 15.06403057258819",
    "COMMENT": "Grouped by shell and plane from TLE"
  },
  {
    "OBJECT_NAME": "STARLINK-2406",
    "OBJECT_ID": "21018AL",
    "EPOCH": "2025-11-11T00:19:31.539072",
    "MEAN_MOTION": 15.06400092,
    "ECCENTRICITY": 0.0001379,
    "INCLINATION": 53.0541,
    "RA_OF_ASC_NODE": 64.3857,
    "ARG_OF_PERICENTER": 89.6414,
    "MEAN_ANOMALY": 270.4733,
    "EPHEMERIS_TYPE": 0,
    "CLASSIFICATION_TYPE": "U",
    "NORAD_CAT_ID": 47821,
    "ELEMENT_SET_NO": 999,
    "REV_AT_EPOCH": 25870,
    "BSTAR": 0.00013614,
    "MEAN_MOTION_DOT": 1.747e-05,
    "MEAN_MOTION_DDOT": 0.0,
    "TLE_LINE1": "1 47821U 21018AL  25315.01355948  .00001747  00000+0  13614-3 0  9991",
    "TLE_LINE2": "2 47821  53.0541  64.3857 0001379  89.6414 270.4733 15.06400092258702",
    "COMMENT": "Grouped by shell and plane from TLE"
  }
]